{
    "links": {
        "self": "http://www.neowsapp.com/rest/v1/neo/3844015?api_key=iIulBulltgU6a56xZRHN4H3l9WmuAYTsLGpBGhQ2"
    },
    "id": "3844015",
    "neo_reference_id": "3844015",
    "name": "(2019 SA3)",
    "designation": "2019 SA3",
    "nasa_jpl_url": "http://ssd.jpl.nasa.gov/sbdb.cgi?sstr=3844015",
    "absolute_magnitude_h": 22.2,
    "estimated_diameter": {
        "kilometers": {
            "estimated_diameter_min": 0.096506147,
            "estimated_diameter_max": 0.2157943048
        },
        "meters": {
            "estimated_diameter_min": 96.5061469579,
            "estimated_diameter_max": 215.7943048444
        },
        "miles": {
            "estimated_diameter_min": 0.059966121,
            "estimated_diameter_max": 0.134088323
        },
        "feet": {
            "estimated_diameter_min": 316.6212271853,
            "estimated_diameter_max": 707.9865871058
        }
    },
    "is_potentially_hazardous_asteroid": false,
    "close_approach_data": [
        {
            "close_approach_date": "2019-08-30",
            "close_approach_date_full": "2019-Aug-30 04:33",
            "epoch_date_close_approach": 1567139580000,
            "relative_velocity": {
                "kilometers_per_second": "4.5017396363",
                "kilometers_per_hour": "16206.2626905048",
                "miles_per_hour": "10069.9413923306"
            },
            "miss_distance": {
                "astronomical": "0.2457158025",
                "lunar": "95.5834471725",
                "kilometers": "36758560.679340675",
                "miles": "22840710.468324315"
            },
            "orbiting_body": "Earth"
        }
    ],
    "orbital_data": {
        "orbit_id": "4",
        "orbit_determination_date": "2020-09-11 07:44:24",
        "first_observation_date": "2019-09-22",
        "last_observation_date": "2019-10-19",
        "data_arc_in_days": 27,
        "observations_used": 31,
        "orbit_uncertainty": "7",
        "minimum_orbit_intersection": ".224691",
        "jupiter_tisserand_invariant": "3.555",
        "epoch_osculation": "2459000.5",
        "eccentricity": ".4452228576559905",
        "semi_major_axis": "2.158717464259134",
        "inclination": "7.059348220147291",
        "ascending_node_longitude": "220.5953523053028",
        "orbital_period": "1158.489586717221",
        "perihelion_distance": "1.197607105949789",
        "perihelion_argument": "113.1066655878529",
        "aphelion_distance": "3.119827822568479",
        "perihelion_time": "2458728.488603511696",
        "mean_anomaly": "84.52739140562691",
        "mean_motion": ".3107494483572545",
        "equinox": "J2000",
        "orbit_class": {
            "orbit_class_type": "AMO",
            "orbit_class_description": "Near-Earth asteroid orbits similar to that of 1221 Amor",
            "orbit_class_range": "1.017 AU < q (perihelion) < 1.3 AU"
        }
    },
    "is_sentry_object": false
}